ORBCOMM FM103           
1 40091U 14040F   24283.54334323  .00003067  00000+0  70930-3 0  9996
2 40091  47.0033 120.7497 0002540 217.7476 142.3231 14.57200719527532
ORBCOMM FM114           
1 41179U 15081A   24283.43584626  .00005544  00000+0  12521-2 0  9994
2 41179  47.0032  30.4552 0003169 274.1631  85.8892 14.57193218467886
ORBCOMM FM119           
1 41180U 15081B   24283.48037342  .00003231  00000+0  74554-3 0  9995
2 41180  47.0001 299.4736 0001943 320.4075  39.6668 14.57179558469140
ORBCOMM FM105           
1 41181U 15081C   24283.36809241  .00002189  00000+0  67035-3 0  9995
2 41181  47.0006 280.9438 0002642 280.0902  79.9680 14.44713295464477
ORBCOMM FM110           
1 41182U 15081D   24283.48068574  .00004562  00000+0  10373-2 0  9994
2 41182  47.0024  29.6283 0000323  30.1557 329.9347 14.57176161467760
ORBCOMM FM118           
1 41183U 15081E   24283.59589484  .00004611  00000+0  10480-2 0  9999
2 41183  47.0045  29.4304 0000580  69.5071 290.5876 14.57185716467887
ORBCOMM FM112           
1 41184U 15081F   24283.38936306  .00004225  00000+0  96361-3 0  9990
2 41184  46.9984 299.1004 0002465 309.6328  50.4339 14.57172153469079
ORBCOMM FM113           
1 41185U 15081G   24283.43499224  .00003848  00000+0  88120-3 0  9994
2 41185  47.0000 299.1745 0002062 323.8994  36.1751 14.57159001469068
